[
    {
        "Altitude(m)": 568688.9346277302,
        "Argument of Periapsis(deg)": 0.019868973332140504,
        "Eccentricity": 0.0,
        "Inclination(deg)": 53.0,
        "Latitude(deg)": -45.257471492752266,
        "Longitude(deg)": 148.48884006801464,
        "Mean Anomaly(deg)": -62.45242139726727,
        "RAAN(deg)": 299.97043010558406,
        "Satellite Name": "Starlink Shell 1 1336",
        "Satellite Number": 1336,
        "Semi-Major Axis(m)": 6931778.249405717,
        "Time(s)": 570
    },
    {
        "Altitude(m)": 568553.6085072743,
        "Argument of Periapsis(deg)": 0.02021755181165174,
        "Eccentricity": 0.0,
        "Inclination(deg)": 53.0,
        "Latitude(deg)": -44.927858496040486,
        "Longitude(deg)": 149.19836974504025,
        "Mean Anomaly(deg)": -61.825590193710575,
        "RAAN(deg)": 299.9699113355066,
        "Satellite Name": "Starlink Shell 1 1336",
        "Satellite Number": 1336,
        "Semi-Major Axis(m)": 6931778.249405717,
        "Time(s)": 580
    },
    {
        "Altitude(m)": 568416.1062706428,
        "Argument of Periapsis(deg)": 0.020566130291162974,
        "Eccentricity": 0.0,
        "Inclination(deg)": 53.0,
        "Latitude(deg)": -44.59334143526829,
        "Longitude(deg)": 149.8993186187434,
        "Mean Anomaly(deg)": -61.19875899015373,
        "RAAN(deg)": 299.96939256542913,
        "Satellite Name": "Starlink Shell 1 1336",
        "Satellite Number": 1336,
        "Semi-Major Axis(m)": 6931778.249405717,
        "Time(s)": 590
    },
    {
        "Altitude(m)": 568276.4820558886,
        "Argument of Periapsis(deg)": 0.020914708770674213,
        "Eccentricity": 0.0,
        "Inclination(deg)": 53.0,
        "Latitude(deg)": -44.25403078495651,
        "Longitude(deg)": 150.59176138707394,
        "Mean Anomaly(deg)": -60.57192778659708,
        "RAAN(deg)": 299.9688737953516,
        "Satellite Name": "Starlink Shell 1 1336",
        "Satellite Number": 1336,
        "Semi-Major Axis(m)": 6931778.249405717,
        "Time(s)": 600
    },
    {
        "Altitude(m)": 568134.7907981655,
        "Argument of Periapsis(deg)": 0.021263287250185448,
        "Eccentricity": 0.0,
        "Inclination(deg)": 53.0,
        "Latitude(deg)": -43.91003539935092,
        "Longitude(deg)": 151.27577821662416,
        "Mean Anomaly(deg)": -59.94509658304039,
        "RAAN(deg)": 299.9683550252742,
        "Satellite Name": "Starlink Shell 1 1336",
        "Satellite Number": 1336,
        "Semi-Major Axis(m)": 6931778.249405717,
        "Time(s)": 610
    },
    {
        "Altitude(m)": 567991.0882055779,
        "Argument of Periapsis(deg)": 0.021611865729696686,
        "Eccentricity": 0.0,
        "Inclination(deg)": 53.0,
        "Latitude(deg)": -43.56146246378103,
        "Longitude(deg)": 151.9514547984597,
        "Mean Anomaly(deg)": -59.31826537948359,
        "RAAN(deg)": 299.96783625519674,
        "Satellite Name": "Starlink Shell 1 1336",
        "Satellite Number": 1336,
        "Semi-Major Axis(m)": 6931778.249405717,
        "Time(s)": 620
    },
    {
        "Altitude(m)": 567845.4307346628,
        "Argument of Periapsis(deg)": 0.02196044420920792,
        "Eccentricity": 0.0,
        "Inclination(deg)": 53.0,
        "Latitude(deg)": -43.208417453215475,
        "Longitude(deg)": 152.6188807402368,
        "Mean Anomaly(deg)": -58.691434175926894,
        "RAAN(deg)": 299.9673174851192,
        "Satellite Name": "Starlink Shell 1 1336",
        "Satellite Number": 1336,
        "Semi-Major Axis(m)": 6931778.249405717,
        "Time(s)": 630
    },
    {
        "Altitude(m)": 567697.8755655176,
        "Argument of Periapsis(deg)": 0.02230902268871916,
        "Eccentricity": 0.0,
        "Inclination(deg)": 53.0,
        "Latitude(deg)": -42.8510040976028,
        "Longitude(deg)": 153.27815049750873,
        "Mean Anomaly(deg)": -58.064602972370196,
        "RAAN(deg)": 299.96679871504176,
        "Satellite Name": "Starlink Shell 1 1336",
        "Satellite Number": 1336,
        "Semi-Major Axis(m)": 6931778.249405717,
        "Time(s)": 640
    },
    {
        "Altitude(m)": 567548.4805765975,
        "Argument of Periapsis(deg)": 0.022657601168230398,
        "Eccentricity": 0.0,
        "Inclination(deg)": 53.0,
        "Latitude(deg)": -42.48932435357904,
        "Longitude(deg)": 153.92936180163488,
        "Mean Anomaly(deg)": -57.43777176881351,
        "RAAN(deg)": 299.9662799449643,
        "Satellite Name": "Starlink Shell 1 1336",
        "Satellite Number": 1336,
        "Semi-Major Axis(m)": 6931778.249405717,
        "Time(s)": 650
    },
    {
        "Altitude(m)": 567397.3043191964,
        "Argument of Periapsis(deg)": 0.023006179647741636,
        "Eccentricity": 0.0,
        "Inclination(deg)": 53.0,
        "Latitude(deg)": -42.123478382140014,
        "Longitude(deg)": 154.57261578689574,
        "Mean Anomaly(deg)": -56.810940565256814,
        "RAAN(deg)": 299.96576117488684,
        "Satellite Name": "Starlink Shell 1 1336",
        "Satellite Number": 1336,
        "Semi-Major Axis(m)": 6931778.249405717,
        "Time(s)": 660
    },
    {
        "Altitude(m)": 567244.4059916203,
        "Argument of Periapsis(deg)": 0.023354758127252868,
        "Eccentricity": 0.0,
        "Inclination(deg)": 53.0,
        "Latitude(deg)": -41.75356453187695,
        "Longitude(deg)": 155.20801713589685,
        "Mean Anomaly(deg)": -56.18410936170007,
        "RAAN(deg)": 299.9652424048093,
        "Satellite Name": "Starlink Shell 1 1336",
        "Satellite Number": 1336,
        "Semi-Major Axis(m)": 6931778.249405717,
        "Time(s)": 670
    },
    {
        "Altitude(m)": 567089.8454130021,
        "Argument of Periapsis(deg)": 0.023703336606764106,
        "Eccentricity": 0.0,
        "Inclination(deg)": 53.0,
        "Latitude(deg)": -41.37967932738549,
        "Longitude(deg)": 155.83567273032207,
        "Mean Anomaly(deg)": -55.55727815814342,
        "RAAN(deg)": 299.96472363473185,
        "Satellite Name": "Starlink Shell 1 1336",
        "Satellite Number": 1336,
        "Semi-Major Axis(m)": 6931778.249405717,
        "Time(s)": 680
    },
    {
        "Altitude(m)": 566933.682996931,
        "Argument of Periapsis(deg)": 0.024051915086275345,
        "Eccentricity": 0.0,
        "Inclination(deg)": 53.0,
        "Latitude(deg)": -41.001917462473024,
        "Longitude(deg)": 156.4556918326214,
        "Mean Anomaly(deg)": -54.93044695458673,
        "RAAN(deg)": 299.9642048646544,
        "Satellite Name": "Starlink Shell 1 1336",
        "Satellite Number": 1336,
        "Semi-Major Axis(m)": 6931778.249405717,
        "Time(s)": 690
    },
    {
        "Altitude(m)": 566775.9797246847,
        "Argument of Periapsis(deg)": 0.024400493565786583,
        "Eccentricity": 0.0,
        "Inclination(deg)": 53.0,
        "Latitude(deg)": -40.62037179779977,
        "Longitude(deg)": 157.068186285505,
        "Mean Anomaly(deg)": -54.30361575102987,
        "RAAN(deg)": 299.96368609457693,
        "Satellite Name": "Starlink Shell 1 1336",
        "Satellite Number": 1336,
        "Semi-Major Axis(m)": 6931778.249405717,
        "Time(s)": 700
    },
    {
        "Altitude(m)": 566616.7971182856,
        "Argument of Periapsis(deg)": 0.024749072045297815,
        "Eccentricity": 0.0,
        "Inclination(deg)": 53.0,
        "Latitude(deg)": -40.2351333625991,
        "Longitude(deg)": 157.673269216047,
        "Mean Anomaly(deg)": -53.67678454747323,
        "RAAN(deg)": 299.96316732449947,
        "Satellite Name": "Starlink Shell 1 1336",
        "Satellite Number": 1336,
        "Semi-Major Axis(m)": 6931778.249405717,
        "Time(s)": 710
    },
    {
        "Altitude(m)": 566456.1972132488,
        "Argument of Periapsis(deg)": 0.025097650524809053,
        "Eccentricity": 0.0,
        "Inclination(deg)": 53.0,
        "Latitude(deg)": -39.84629136014454,
        "Longitude(deg)": 158.27105526975336,
        "Mean Anomaly(deg)": -53.049953343916485,
        "RAAN(deg)": 299.96264855442195,
        "Satellite Name": "Starlink Shell 1 1336",
        "Satellite Number": 1336,
        "Semi-Major Axis(m)": 6931778.249405717,
        "Time(s)": 720
    },
    {
        "Altitude(m)": 566294.242531092,
        "Argument of Periapsis(deg)": 0.02544622900432029,
        "Eccentricity": 0.0,
        "Inclination(deg)": 53.0,
        "Latitude(deg)": -39.4539331766426,
        "Longitude(deg)": 158.86166086127196,
        "Mean Anomaly(deg)": -52.42312214035979,
        "RAAN(deg)": 299.9621297843445,
        "Satellite Name": "Starlink Shell 1 1336",
        "Satellite Number": 1336,
        "Semi-Major Axis(m)": 6931778.249405717,
        "Time(s)": 730
    },
    {
        "Altitude(m)": 566130.9960516387,
        "Argument of Periapsis(deg)": 0.02579480748383153,
        "Eccentricity": 0.0,
        "Inclination(deg)": 53.0,
        "Latitude(deg)": -39.05814439323982,
        "Longitude(deg)": 159.44520292838874,
        "Mean Anomaly(deg)": -51.79629093680304,
        "RAAN(deg)": 299.9616110142671,
        "Satellite Name": "Starlink Shell 1 1336",
        "Satellite Number": 1336,
        "Semi-Major Axis(m)": 6931778.249405717,
        "Time(s)": 740
    },
    {
        "Altitude(m)": 565966.521185058,
        "Argument of Periapsis(deg)": 0.026143385963342765,
        "Eccentricity": 0.0,
        "Inclination(deg)": 53.0,
        "Latitude(deg)": -38.659008800861095,
        "Longitude(deg)": 160.02179921452503,
        "Mean Anomaly(deg)": -51.1694597332464,
        "RAAN(deg)": 299.96109224418956,
        "Satellite Name": "Starlink Shell 1 1336",
        "Satellite Number": 1336,
        "Semi-Major Axis(m)": 6931778.249405717,
        "Time(s)": 750
    }
]